; generated by thermal-assess test generator
; slicer = testgen
; filament_type = PLA
; filament_diameter = 1.75
; nozzle_temperature = 210
; hot_plate_temp = 55
; layer_height = 0.2

M82
M104 S210
M140 S55
G28
G92 E0
G1 Z0.2 F600
;LAYER_CHANGE
;Z:0.200
G1 Z0.200 F600
;TYPE:Outer wall
G1 X85.000 Y85.000 F900
G1 X115.000 Y85.000 E1.04769 F900
G1 X115.000 Y115.000 E2.09539 F900
G1 X85.000 Y115.000 E3.14308 F900
G1 X85.000 Y85.000 E4.19078 F900
;LAYER_CHANGE
;Z:0.400
G1 Z0.400 F600
;TYPE:Outer wall
G1 X85.000 Y85.000 F900
G1 X115.000 Y85.000 E5.23847 F900
G1 X115.000 Y115.000 E6.28617 F900
G1 X85.000 Y115.000 E7.33386 F900
G1 X85.000 Y85.000 E8.38155 F900
;LAYER_CHANGE
;Z:0.600
G1 Z0.600 F600
;TYPE:Outer wall
G1 X85.000 Y85.000 F900
G1 X115.000 Y85.000 E9.42925 F900
G1 X115.000 Y115.000 E10.47694 F900
G1 X85.000 Y115.000 E11.52464 F900
G1 X85.000 Y85.000 E12.57233 F900
;LAYER_CHANGE
;Z:0.800
G1 Z0.800 F600
;TYPE:Outer wall
G1 X85.000 Y85.000 F900
G1 X115.000 Y85.000 E13.62003 F900
G1 X115.000 Y115.000 E14.66772 F900
G1 X85.000 Y115.000 E15.71541 F900
G1 X85.000 Y85.000 E16.76311 F900
;LAYER_CHANGE
;Z:1.000
G1 Z1.000 F600
;TYPE:Outer wall
G1 X85.000 Y85.000 F900
G1 X115.000 Y85.000 E17.81080 F900
G1 X115.000 Y115.000 E18.85850 F900
G1 X85.000 Y115.000 E19.90619 F900
G1 X85.000 Y85.000 E20.95389 F900
;LAYER_CHANGE
;Z:1.200
G1 Z1.200 F600
;TYPE:Outer wall
G1 X85.000 Y85.000 F900
G1 X115.000 Y85.000 E22.00158 F900
G1 X115.000 Y115.000 E23.04927 F900
G1 X85.000 Y115.000 E24.09697 F900
G1 X85.000 Y85.000 E25.14466 F900
;LAYER_CHANGE
;Z:1.400
G1 Z1.400 F600
;TYPE:Outer wall
G1 X85.000 Y85.000 F900
G1 X115.000 Y85.000 E26.19236 F900
G1 X115.000 Y115.000 E27.24005 F900
G1 X85.000 Y115.000 E28.28774 F900
G1 X85.000 Y85.000 E29.33544 F900
;LAYER_CHANGE
;Z:1.600
G1 Z1.600 F600
;TYPE:Outer wall
G1 X85.000 Y85.000 F900
G1 X115.000 Y85.000 E30.38313 F900
G1 X115.000 Y115.000 E31.43083 F900
G1 X85.000 Y115.000 E32.47852 F900
G1 X85.000 Y85.000 E33.52622 F900
;LAYER_CHANGE
;Z:1.800
G1 Z1.800 F600
;TYPE:Outer wall
G1 X85.000 Y85.000 F900
G1 X115.000 Y85.000 E34.57391 F900
G1 X115.000 Y115.000 E35.62160 F900
G1 X85.000 Y115.000 E36.66930 F900
G1 X85.000 Y85.000 E37.71699 F900
;LAYER_CHANGE
;Z:2.000
G1 Z2.000 F600
;TYPE:Outer wall
G1 X85.000 Y85.000 F900
G1 X115.000 Y85.000 E38.76469 F900
G1 X115.000 Y115.000 E39.81238 F900
G1 X85.000 Y115.000 E40.86008 F900
G1 X85.000 Y85.000 E41.90777 F900
;LAYER_CHANGE
;Z:2.200
G1 Z2.200 F600
;TYPE:Outer wall
G1 X85.000 Y85.000 F900
G1 X115.000 Y85.000 E42.95546 F900
G1 X115.000 Y115.000 E44.00316 F900
G1 X85.000 Y115.000 E45.05085 F900
G1 X85.000 Y85.000 E46.09855 F900
;LAYER_CHANGE
;Z:2.400
G1 Z2.400 F600
;TYPE:Outer wall
G1 X85.000 Y85.000 F900
G1 X115.000 Y85.000 E47.14624 F900
G1 X115.000 Y115.000 E48.19394 F900
G1 X85.000 Y115.000 E49.24163 F900
G1 X85.000 Y85.000 E50.28932 F900
;LAYER_CHANGE
;Z:2.600
G1 Z2.600 F600
;TYPE:Outer wall
G1 X85.000 Y85.000 F900
G1 X115.000 Y85.000 E51.33702 F900
G1 X115.000 Y115.000 E52.38471 F900
G1 X85.000 Y115.000 E53.43241 F900
G1 X85.000 Y85.000 E54.48010 F900
;LAYER_CHANGE
;Z:2.800
G1 Z2.800 F600
;TYPE:Outer wall
G1 X85.000 Y85.000 F900
G1 X115.000 Y85.000 E55.52780 F900
G1 X115.000 Y115.000 E56.57549 F900
G1 X85.000 Y115.000 E57.62318 F900
G1 X85.000 Y85.000 E58.67088 F900
;LAYER_CHANGE
;Z:3.000
G1 Z3.000 F600
;TYPE:Outer wall
G1 X85.000 Y85.000 F900
G1 X115.000 Y85.000 E59.71857 F900
G1 X115.000 Y115.000 E60.76627 F900
G1 X85.000 Y115.000 E61.81396 F900
G1 X85.000 Y85.000 E62.86166 F900
;LAYER_CHANGE
;Z:3.200
G1 Z3.200 F600
;TYPE:Outer wall
G1 X85.000 Y85.000 F900
G1 X115.000 Y85.000 E63.90935 F900
G1 X115.000 Y115.000 E64.95704 F900
G1 X85.000 Y115.000 E66.00474 F900
G1 X85.000 Y85.000 E67.05243 F900
;LAYER_CHANGE
;Z:3.400
G1 Z3.400 F600
;TYPE:Outer wall
G1 X85.000 Y85.000 F900
G1 X115.000 Y85.000 E68.10013 F900
G1 X115.000 Y115.000 E69.14782 F900
G1 X85.000 Y115.000 E70.19552 F900
G1 X85.000 Y85.000 E71.24321 F900
;LAYER_CHANGE
;Z:3.600
G1 Z3.600 F600
;TYPE:Outer wall
G1 X85.000 Y85.000 F900
G1 X115.000 Y85.000 E72.29090 F900
G1 X115.000 Y115.000 E73.33860 F900
G1 X85.000 Y115.000 E74.38629 F900
G1 X85.000 Y85.000 E75.43399 F900
;LAYER_CHANGE
;Z:3.800
G1 Z3.800 F600
;TYPE:Outer wall
G1 X85.000 Y85.000 F900
G1 X115.000 Y85.000 E76.48168 F900
G1 X115.000 Y115.000 E77.52937 F900
G1 X85.000 Y115.000 E78.57707 F900
G1 X85.000 Y85.000 E79.62476 F900
;LAYER_CHANGE
;Z:4.000
G1 Z4.000 F600
;TYPE:Outer wall
G1 X85.000 Y85.000 F900
G1 X115.000 Y85.000 E80.67246 F900
G1 X115.000 Y115.000 E81.72015 F900
G1 X85.000 Y115.000 E82.76785 F900
G1 X85.000 Y85.000 E83.81554 F900
;LAYER_CHANGE
;Z:4.200
G1 Z4.200 F600
;TYPE:Outer wall
G1 X85.000 Y85.000 F900
G1 X115.000 Y85.000 E84.86323 F900
G1 X115.000 Y115.000 E85.91093 F900
G1 X85.000 Y115.000 E86.95862 F900
G1 X85.000 Y85.000 E88.00632 F900
;LAYER_CHANGE
;Z:4.400
G1 Z4.400 F600
;TYPE:Outer wall
G1 X85.000 Y85.000 F900
G1 X115.000 Y85.000 E89.05401 F900
G1 X115.000 Y115.000 E90.10171 F900
G1 X85.000 Y115.000 E91.14940 F900
G1 X85.000 Y85.000 E92.19709 F900
;LAYER_CHANGE
;Z:4.600
G1 Z4.600 F600
;TYPE:Outer wall
G1 X85.000 Y85.000 F900
G1 X115.000 Y85.000 E93.24479 F900
G1 X115.000 Y115.000 E94.29248 F900
G1 X85.000 Y115.000 E95.34018 F900
G1 X85.000 Y85.000 E96.38787 F900
;LAYER_CHANGE
;Z:4.800
G1 Z4.800 F600
;TYPE:Outer wall
G1 X85.000 Y85.000 F900
G1 X115.000 Y85.000 E97.43557 F900
G1 X115.000 Y115.000 E98.48326 F900
G1 X85.000 Y115.000 E99.53095 F900
G1 X85.000 Y85.000 E100.57865 F900
;LAYER_CHANGE
;Z:5.000
G1 Z5.000 F600
;TYPE:Outer wall
G1 X85.000 Y85.000 F900
G1 X115.000 Y85.000 E101.62634 F900
G1 X115.000 Y115.000 E102.67404 F900
G1 X85.000 Y115.000 E103.72173 F900
G1 X85.000 Y85.000 E104.76943 F900
;LAYER_CHANGE
;Z:5.200
G1 Z5.200 F600
;TYPE:Outer wall
G1 X85.000 Y85.000 F900
G1 X115.000 Y85.000 E105.81712 F900
G1 X115.000 Y115.000 E106.86481 F900
G1 X85.000 Y115.000 E107.91251 F900
G1 X85.000 Y85.000 E108.96020 F900
;LAYER_CHANGE
;Z:5.400
G1 Z5.400 F600
;TYPE:Outer wall
G1 X85.000 Y85.000 F900
G1 X115.000 Y85.000 E110.00790 F900
G1 X115.000 Y115.000 E111.05559 F900
G1 X85.000 Y115.000 E112.10329 F900
G1 X85.000 Y85.000 E113.15098 F900
;LAYER_CHANGE
;Z:5.600
G1 Z5.600 F600
;TYPE:Outer wall
G1 X85.000 Y85.000 F900
G1 X115.000 Y85.000 E114.19867 F900
G1 X115.000 Y115.000 E115.24637 F900
G1 X85.000 Y115.000 E116.29406 F900
G1 X85.000 Y85.000 E117.34176 F900
;LAYER_CHANGE
;Z:5.800
G1 Z5.800 F600
;TYPE:Outer wall
G1 X85.000 Y85.000 F900
G1 X115.000 Y85.000 E118.38945 F900
G1 X115.000 Y115.000 E119.43714 F900
G1 X85.000 Y115.000 E120.48484 F900
G1 X85.000 Y85.000 E121.53253 F900
;LAYER_CHANGE
;Z:6.000
G1 Z6.000 F600
;TYPE:Outer wall
G1 X85.000 Y85.000 F900
G1 X115.000 Y85.000 E122.58023 F900
G1 X115.000 Y115.000 E123.62792 F900
G1 X85.000 Y115.000 E124.67562 F900
G1 X85.000 Y85.000 E125.72331 F900
;LAYER_CHANGE
;Z:6.200
G1 Z6.200 F600
;TYPE:Outer wall
G1 X85.000 Y85.000 F900
G1 X115.000 Y85.000 E126.77100 F900
G1 X115.000 Y115.000 E127.81870 F900
G1 X85.000 Y115.000 E128.86639 F900
G1 X85.000 Y85.000 E129.91409 F900
;LAYER_CHANGE
;Z:6.400
G1 Z6.400 F600
;TYPE:Outer wall
G1 X85.000 Y85.000 F900
G1 X115.000 Y85.000 E130.96178 F900
G1 X115.000 Y115.000 E132.00948 F900
G1 X85.000 Y115.000 E133.05717 F900
G1 X85.000 Y85.000 E134.10486 F900
;LAYER_CHANGE
;Z:6.600
G1 Z6.600 F600
;TYPE:Outer wall
G1 X85.000 Y85.000 F900
G1 X115.000 Y85.000 E135.15256 F900
G1 X115.000 Y115.000 E136.20025 F900
G1 X85.000 Y115.000 E137.24795 F900
G1 X85.000 Y85.000 E138.29564 F900
;LAYER_CHANGE
;Z:6.800
G1 Z6.800 F600
;TYPE:Outer wall
G1 X85.000 Y85.000 F900
G1 X115.000 Y85.000 E139.34334 F900
G1 X115.000 Y115.000 E140.39103 F900
G1 X85.000 Y115.000 E141.43872 F900
G1 X85.000 Y85.000 E142.48642 F900
;LAYER_CHANGE
;Z:7.000
G1 Z7.000 F600
;TYPE:Outer wall
G1 X85.000 Y85.000 F900
G1 X115.000 Y85.000 E143.53411 F900
G1 X115.000 Y115.000 E144.58181 F900
G1 X85.000 Y115.000 E145.62950 F900
G1 X85.000 Y85.000 E146.67720 F900
;LAYER_CHANGE
;Z:7.200
G1 Z7.200 F600
;TYPE:Outer wall
G1 X85.000 Y85.000 F900
G1 X115.000 Y85.000 E147.72489 F900
G1 X115.000 Y115.000 E148.77258 F900
G1 X85.000 Y115.000 E149.82028 F900
G1 X85.000 Y85.000 E150.86797 F900
;LAYER_CHANGE
;Z:7.400
G1 Z7.400 F600
;TYPE:Outer wall
G1 X85.000 Y85.000 F900
G1 X115.000 Y85.000 E151.91567 F900
G1 X115.000 Y115.000 E152.96336 F900
G1 X85.000 Y115.000 E154.01106 F900
G1 X85.000 Y85.000 E155.05875 F900
;LAYER_CHANGE
;Z:7.600
G1 Z7.600 F600
;TYPE:Outer wall
G1 X85.000 Y85.000 F900
G1 X115.000 Y85.000 E156.10644 F900
G1 X115.000 Y115.000 E157.15414 F900
G1 X85.000 Y115.000 E158.20183 F900
G1 X85.000 Y85.000 E159.24953 F900
;LAYER_CHANGE
;Z:7.800
G1 Z7.800 F600
;TYPE:Outer wall
G1 X85.000 Y85.000 F900
G1 X115.000 Y85.000 E160.29722 F900
G1 X115.000 Y115.000 E161.34492 F900
G1 X85.000 Y115.000 E162.39261 F900
G1 X85.000 Y85.000 E163.44030 F900
;LAYER_CHANGE
;Z:8.000
G1 Z8.000 F600
;TYPE:Outer wall
G1 X85.000 Y85.000 F900
G1 X115.000 Y85.000 E164.48800 F900
G1 X115.000 Y115.000 E165.53569 F900
G1 X85.000 Y115.000 E166.58339 F900
G1 X85.000 Y85.000 E167.63108 F900
M107
M104 S0