; generated by thermal-assess test generator
; slicer = testgen
; filament_type = PLA
; filament_diameter = 1.75
; nozzle_temperature = 210
; hot_plate_temp = 55
; layer_height = 0.2

M82
M104 S210
M140 S55
G28
G92 E0
G1 Z0.2 F600
;LAYER_CHANGE
;Z:0.200
G1 Z0.200 F600
;TYPE:Outer wall
G1 X75.000 Y75.000 F12000
G1 X125.000 Y75.000 E1.74616 F12000
G1 X125.000 Y125.000 E3.49231 F12000
G1 X75.000 Y125.000 E5.23847 F12000
G1 X75.000 Y75.000 E6.98463 F12000
;LAYER_CHANGE
;Z:0.400
G1 Z0.400 F600
;TYPE:Outer wall
G1 X75.000 Y75.000 F12000
G1 X125.000 Y75.000 E8.73079 F12000
G1 X125.000 Y125.000 E10.47694 F12000
G1 X75.000 Y125.000 E12.22310 F12000
G1 X75.000 Y75.000 E13.96926 F12000
;LAYER_CHANGE
;Z:0.600
G1 Z0.600 F600
;TYPE:Outer wall
G1 X75.000 Y75.000 F12000
G1 X125.000 Y75.000 E15.71541 F12000
G1 X125.000 Y125.000 E17.46157 F12000
G1 X75.000 Y125.000 E19.20773 F12000
G1 X75.000 Y75.000 E20.95389 F12000
;LAYER_CHANGE
;Z:0.800
G1 Z0.800 F600
;TYPE:Outer wall
G1 X75.000 Y75.000 F12000
G1 X125.000 Y75.000 E22.70004 F12000
G1 X125.000 Y125.000 E24.44620 F12000
G1 X75.000 Y125.000 E26.19236 F12000
G1 X75.000 Y75.000 E27.93851 F12000
;LAYER_CHANGE
;Z:1.000
G1 Z1.000 F600
;TYPE:Outer wall
G1 X75.000 Y75.000 F12000
G1 X125.000 Y75.000 E29.68467 F12000
G1 X125.000 Y125.000 E31.43083 F12000
G1 X75.000 Y125.000 E33.17698 F12000
G1 X75.000 Y75.000 E34.92314 F12000
;LAYER_CHANGE
;Z:1.200
G1 Z1.200 F600
;TYPE:Outer wall
G1 X75.000 Y75.000 F12000
G1 X125.000 Y75.000 E36.66930 F12000
G1 X125.000 Y125.000 E38.41546 F12000
G1 X75.000 Y125.000 E40.16161 F12000
G1 X75.000 Y75.000 E41.90777 F12000
;LAYER_CHANGE
;Z:1.400
G1 Z1.400 F600
;TYPE:Outer wall
G1 X75.000 Y75.000 F12000
G1 X125.000 Y75.000 E43.65393 F12000
G1 X125.000 Y125.000 E45.40008 F12000
G1 X75.000 Y125.000 E47.14624 F12000
G1 X75.000 Y75.000 E48.89240 F12000
;LAYER_CHANGE
;Z:1.600
G1 Z1.600 F600
;TYPE:Outer wall
G1 X75.000 Y75.000 F12000
G1 X125.000 Y75.000 E50.63856 F12000
G1 X125.000 Y125.000 E52.38471 F12000
G1 X75.000 Y125.000 E54.13087 F12000
G1 X75.000 Y75.000 E55.87703 F12000
;LAYER_CHANGE
;Z:1.800
G1 Z1.800 F600
;TYPE:Outer wall
G1 X75.000 Y75.000 F12000
G1 X125.000 Y75.000 E57.62318 F12000
G1 X125.000 Y125.000 E59.36934 F12000
G1 X75.000 Y125.000 E61.11550 F12000
G1 X75.000 Y75.000 E62.86166 F12000
;LAYER_CHANGE
;Z:2.000
G1 Z2.000 F600
;TYPE:Outer wall
G1 X75.000 Y75.000 F12000
G1 X125.000 Y75.000 E64.60781 F12000
G1 X125.000 Y125.000 E66.35397 F12000
G1 X75.000 Y125.000 E68.10013 F12000
G1 X75.000 Y75.000 E69.84628 F12000
;LAYER_CHANGE
;Z:2.200
G1 Z2.200 F600
;TYPE:Outer wall
G1 X75.000 Y75.000 F12000
G1 X125.000 Y75.000 E71.59244 F12000
G1 X125.000 Y125.000 E73.33860 F12000
G1 X75.000 Y125.000 E75.08475 F12000
G1 X75.000 Y75.000 E76.83091 F12000
;LAYER_CHANGE
;Z:2.400
G1 Z2.400 F600
;TYPE:Outer wall
G1 X75.000 Y75.000 F12000
G1 X125.000 Y75.000 E78.57707 F12000
G1 X125.000 Y125.000 E80.32323 F12000
G1 X75.000 Y125.000 E82.06938 F12000
G1 X75.000 Y75.000 E83.81554 F12000
;LAYER_CHANGE
;Z:2.600
G1 Z2.600 F600
;TYPE:Outer wall
G1 X75.000 Y75.000 F12000
G1 X125.000 Y75.000 E85.56170 F12000
G1 X125.000 Y125.000 E87.30785 F12000
G1 X75.000 Y125.000 E89.05401 F12000
G1 X75.000 Y75.000 E90.80017 F12000
;LAYER_CHANGE
;Z:2.800
G1 Z2.800 F600
;TYPE:Outer wall
G1 X75.000 Y75.000 F12000
G1 X125.000 Y75.000 E92.54633 F12000
G1 X125.000 Y125.000 E94.29248 F12000
G1 X75.000 Y125.000 E96.03864 F12000
G1 X75.000 Y75.000 E97.78480 F12000
;LAYER_CHANGE
;Z:3.000
G1 Z3.000 F600
;TYPE:Outer wall
G1 X75.000 Y75.000 F12000
G1 X125.000 Y75.000 E99.53095 F12000
G1 X125.000 Y125.000 E101.27711 F12000
G1 X75.000 Y125.000 E103.02327 F12000
G1 X75.000 Y75.000 E104.76943 F12000
;LAYER_CHANGE
;Z:3.200
G1 Z3.200 F600
;TYPE:Outer wall
G1 X75.000 Y75.000 F12000
G1 X125.000 Y75.000 E106.51558 F12000
G1 X125.000 Y125.000 E108.26174 F12000
G1 X75.000 Y125.000 E110.00790 F12000
G1 X75.000 Y75.000 E111.75405 F12000
;LAYER_CHANGE
;Z:3.400
G1 Z3.400 F600
;TYPE:Outer wall
G1 X75.000 Y75.000 F12000
G1 X125.000 Y75.000 E113.50021 F12000
G1 X125.000 Y125.000 E115.24637 F12000
G1 X75.000 Y125.000 E116.99253 F12000
G1 X75.000 Y75.000 E118.73868 F12000
;LAYER_CHANGE
;Z:3.600
G1 Z3.600 F600
;TYPE:Outer wall
G1 X75.000 Y75.000 F12000
G1 X125.000 Y75.000 E120.48484 F12000
G1 X125.000 Y125.000 E122.23100 F12000
G1 X75.000 Y125.000 E123.97715 F12000
G1 X75.000 Y75.000 E125.72331 F12000
;LAYER_CHANGE
;Z:3.800
G1 Z3.800 F600
;TYPE:Outer wall
G1 X75.000 Y75.000 F12000
G1 X125.000 Y75.000 E127.46947 F12000
G1 X125.000 Y125.000 E129.21562 F12000
G1 X75.000 Y125.000 E130.96178 F12000
G1 X75.000 Y75.000 E132.70794 F12000
;LAYER_CHANGE
;Z:4.000
G1 Z4.000 F600
;TYPE:Outer wall
G1 X75.000 Y75.000 F12000
G1 X125.000 Y75.000 E134.45410 F12000
G1 X125.000 Y125.000 E136.20025 F12000
G1 X75.000 Y125.000 E137.94641 F12000
G1 X75.000 Y75.000 E139.69257 F12000
;LAYER_CHANGE
;Z:4.200
G1 Z4.200 F600
;TYPE:Outer wall
G1 X75.000 Y75.000 F12000
G1 X125.000 Y75.000 E141.43872 F12000
G1 X125.000 Y125.000 E143.18488 F12000
G1 X75.000 Y125.000 E144.93104 F12000
G1 X75.000 Y75.000 E146.67720 F12000
;LAYER_CHANGE
;Z:4.400
G1 Z4.400 F600
;TYPE:Outer wall
G1 X75.000 Y75.000 F12000
G1 X125.000 Y75.000 E148.42335 F12000
G1 X125.000 Y125.000 E150.16951 F12000
G1 X75.000 Y125.000 E151.91567 F12000
G1 X75.000 Y75.000 E153.66182 F12000
;LAYER_CHANGE
;Z:4.600
G1 Z4.600 F600
;TYPE:Outer wall
G1 X75.000 Y75.000 F12000
G1 X125.000 Y75.000 E155.40798 F12000
G1 X125.000 Y125.000 E157.15414 F12000
G1 X75.000 Y125.000 E158.90030 F12000
G1 X75.000 Y75.000 E160.64645 F12000
;LAYER_CHANGE
;Z:4.800
G1 Z4.800 F600
;TYPE:Outer wall
G1 X75.000 Y75.000 F12000
G1 X125.000 Y75.000 E162.39261 F12000
G1 X125.000 Y125.000 E164.13877 F12000
G1 X75.000 Y125.000 E165.88492 F12000
G1 X75.000 Y75.000 E167.63108 F12000
;LAYER_CHANGE
;Z:5.000
G1 Z5.000 F600
;TYPE:Outer wall
G1 X75.000 Y75.000 F12000
G1 X125.000 Y75.000 E169.37724 F12000
G1 X125.000 Y125.000 E171.12339 F12000
G1 X75.000 Y125.000 E172.86955 F12000
G1 X75.000 Y75.000 E174.61571 F12000
;LAYER_CHANGE
;Z:5.200
G1 Z5.200 F600
;TYPE:Outer wall
G1 X75.000 Y75.000 F12000
G1 X125.000 Y75.000 E176.36187 F12000
G1 X125.000 Y125.000 E178.10802 F12000
G1 X75.000 Y125.000 E179.85418 F12000
G1 X75.000 Y75.000 E181.60034 F12000
;LAYER_CHANGE
;Z:5.400
G1 Z5.400 F600
;TYPE:Outer wall
G1 X75.000 Y75.000 F12000
G1 X125.000 Y75.000 E183.34649 F12000
G1 X125.000 Y125.000 E185.09265 F12000
G1 X75.000 Y125.000 E186.83881 F12000
G1 X75.000 Y75.000 E188.58497 F12000
;LAYER_CHANGE
;Z:5.600
G1 Z5.600 F600
;TYPE:Outer wall
G1 X75.000 Y75.000 F12000
G1 X125.000 Y75.000 E190.33112 F12000
G1 X125.000 Y125.000 E192.07728 F12000
G1 X75.000 Y125.000 E193.82344 F12000
G1 X75.000 Y75.000 E195.56959 F12000
;LAYER_CHANGE
;Z:5.800
G1 Z5.800 F600
;TYPE:Outer wall
G1 X75.000 Y75.000 F12000
G1 X125.000 Y75.000 E197.31575 F12000
G1 X125.000 Y125.000 E199.06191 F12000
G1 X75.000 Y125.000 E200.80807 F12000
G1 X75.000 Y75.000 E202.55422 F12000
;LAYER_CHANGE
;Z:6.000
G1 Z6.000 F600
;TYPE:Outer wall
G1 X75.000 Y75.000 F12000
G1 X125.000 Y75.000 E204.30038 F12000
G1 X125.000 Y125.000 E206.04654 F12000
G1 X75.000 Y125.000 E207.79269 F12000
G1 X75.000 Y75.000 E209.53885 F12000
;LAYER_CHANGE
;Z:6.200
G1 Z6.200 F600
;TYPE:Outer wall
G1 X75.000 Y75.000 F12000
G1 X125.000 Y75.000 E211.28501 F12000
G1 X125.000 Y125.000 E213.03116 F12000
G1 X75.000 Y125.000 E214.77732 F12000
G1 X75.000 Y75.000 E216.52348 F12000
;LAYER_CHANGE
;Z:6.400
G1 Z6.400 F600
;TYPE:Outer wall
G1 X75.000 Y75.000 F12000
G1 X125.000 Y75.000 E218.26964 F12000
G1 X125.000 Y125.000 E220.01579 F12000
G1 X75.000 Y125.000 E221.76195 F12000
G1 X75.000 Y75.000 E223.50811 F12000
;LAYER_CHANGE
;Z:6.600
G1 Z6.600 F600
;TYPE:Outer wall
G1 X75.000 Y75.000 F12000
G1 X125.000 Y75.000 E225.25426 F12000
G1 X125.000 Y125.000 E227.00042 F12000
G1 X75.000 Y125.000 E228.74658 F12000
G1 X75.000 Y75.000 E230.49274 F12000
;LAYER_CHANGE
;Z:6.800
G1 Z6.800 F600
;TYPE:Outer wall
G1 X75.000 Y75.000 F12000
G1 X125.000 Y75.000 E232.23889 F12000
G1 X125.000 Y125.000 E233.98505 F12000
G1 X75.000 Y125.000 E235.73121 F12000
G1 X75.000 Y75.000 E237.47736 F12000
;LAYER_CHANGE
;Z:7.000
G1 Z7.000 F600
;TYPE:Outer wall
G1 X75.000 Y75.000 F12000
G1 X125.000 Y75.000 E239.22352 F12000
G1 X125.000 Y125.000 E240.96968 F12000
G1 X75.000 Y125.000 E242.71584 F12000
G1 X75.000 Y75.000 E244.46199 F12000
;LAYER_CHANGE
;Z:7.200
G1 Z7.200 F600
;TYPE:Outer wall
G1 X75.000 Y75.000 F12000
G1 X125.000 Y75.000 E246.20815 F12000
G1 X125.000 Y125.000 E247.95431 F12000
G1 X75.000 Y125.000 E249.70046 F12000
G1 X75.000 Y75.000 E251.44662 F12000
;LAYER_CHANGE
;Z:7.400
G1 Z7.400 F600
;TYPE:Outer wall
G1 X75.000 Y75.000 F12000
G1 X125.000 Y75.000 E253.19278 F12000
G1 X125.000 Y125.000 E254.93894 F12000
G1 X75.000 Y125.000 E256.68509 F12000
G1 X75.000 Y75.000 E258.43125 F12000
;LAYER_CHANGE
;Z:7.600
G1 Z7.600 F600
;TYPE:Outer wall
G1 X75.000 Y75.000 F12000
G1 X125.000 Y75.000 E260.17741 F12000
G1 X125.000 Y125.000 E261.92356 F12000
G1 X75.000 Y125.000 E263.66972 F12000
G1 X75.000 Y75.000 E265.41588 F12000
;LAYER_CHANGE
;Z:7.800
G1 Z7.800 F600
;TYPE:Outer wall
G1 X75.000 Y75.000 F12000
G1 X125.000 Y75.000 E267.16203 F12000
G1 X125.000 Y125.000 E268.90819 F12000
G1 X75.000 Y125.000 E270.65435 F12000
G1 X75.000 Y75.000 E272.40051 F12000
;LAYER_CHANGE
;Z:8.000
G1 Z8.000 F600
;TYPE:Outer wall
G1 X75.000 Y75.000 F12000
G1 X125.000 Y75.000 E274.14666 F12000
G1 X125.000 Y125.000 E275.89282 F12000
G1 X75.000 Y125.000 E277.63898 F12000
G1 X75.000 Y75.000 E279.38513 F12000
M107
M104 S0