; generated by thermal-assess test generator
; slicer = testgen
; filament_type = PLA
; filament_diameter = 1.75
; nozzle_temperature = 210
; hot_plate_temp = 55
; layer_height = 0.2

M82
M104 S210
M140 S55
G28
G92 E0
G1 Z0.2 F600
;LAYER_CHANGE
;Z:0.200
G1 Z0.200 F600
;TYPE:Outer wall
G1 X80.000 Y80.000 F600
G1 X120.000 Y80.000 E1.39693 F600
G1 X120.000 Y120.000 E2.79385 F600
G1 X80.000 Y120.000 E4.19078 F600
G1 X80.000 Y80.000 E5.58770 F600
;LAYER_CHANGE
;Z:0.400
G1 Z0.400 F600
;TYPE:Outer wall
G1 X80.000 Y80.000 F600
G1 X120.000 Y80.000 E6.98463 F600
G1 X120.000 Y120.000 E8.38155 F600
G1 X80.000 Y120.000 E9.77848 F600
G1 X80.000 Y80.000 E11.17541 F600
;LAYER_CHANGE
;Z:0.600
G1 Z0.600 F600
;TYPE:Outer wall
G1 X80.000 Y80.000 F600
G1 X120.000 Y80.000 E12.57233 F600
G1 X120.000 Y120.000 E13.96926 F600
G1 X80.000 Y120.000 E15.36618 F600
G1 X80.000 Y80.000 E16.76311 F600
;LAYER_CHANGE
;Z:0.800
G1 Z0.800 F600
;TYPE:Outer wall
G1 X80.000 Y80.000 F600
G1 X120.000 Y80.000 E18.16003 F600
G1 X120.000 Y120.000 E19.55696 F600
G1 X80.000 Y120.000 E20.95389 F600
G1 X80.000 Y80.000 E22.35081 F600
;LAYER_CHANGE
;Z:1.000
G1 Z1.000 F600
;TYPE:Outer wall
G1 X80.000 Y80.000 F600
G1 X120.000 Y80.000 E23.74774 F600
G1 X120.000 Y120.000 E25.14466 F600
G1 X80.000 Y120.000 E26.54159 F600
G1 X80.000 Y80.000 E27.93851 F600
;LAYER_CHANGE
;Z:1.200
G1 Z1.200 F600
;TYPE:Outer wall
G1 X80.000 Y80.000 F600
G1 X120.000 Y80.000 E29.33544 F600
G1 X120.000 Y120.000 E30.73236 F600
G1 X80.000 Y120.000 E32.12929 F600
G1 X80.000 Y80.000 E33.52622 F600
;LAYER_CHANGE
;Z:1.400
G1 Z1.400 F600
;TYPE:Outer wall
G1 X80.000 Y80.000 F600
G1 X120.000 Y80.000 E34.92314 F600
G1 X120.000 Y120.000 E36.32007 F600
G1 X80.000 Y120.000 E37.71699 F600
G1 X80.000 Y80.000 E39.11392 F600
;LAYER_CHANGE
;Z:1.600
G1 Z1.600 F600
;TYPE:Outer wall
G1 X80.000 Y80.000 F600
G1 X120.000 Y80.000 E40.51084 F600
G1 X120.000 Y120.000 E41.90777 F600
G1 X80.000 Y120.000 E43.30470 F600
G1 X80.000 Y80.000 E44.70162 F600
;LAYER_CHANGE
;Z:1.800
G1 Z1.800 F600
;TYPE:Outer wall
G1 X80.000 Y80.000 F600
G1 X120.000 Y80.000 E46.09855 F600
G1 X120.000 Y120.000 E47.49547 F600
G1 X80.000 Y120.000 E48.89240 F600
G1 X80.000 Y80.000 E50.28932 F600
;LAYER_CHANGE
;Z:2.000
G1 Z2.000 F600
;TYPE:Outer wall
G1 X80.000 Y80.000 F600
G1 X120.000 Y80.000 E51.68625 F600
G1 X120.000 Y120.000 E53.08318 F600
G1 X80.000 Y120.000 E54.48010 F600
G1 X80.000 Y80.000 E55.87703 F600
;LAYER_CHANGE
;Z:2.200
G1 Z2.200 F600
;TYPE:Outer wall
G1 X80.000 Y80.000 F9000
G1 X120.000 Y80.000 E57.27395 F9000
G1 X120.000 Y120.000 E58.67088 F9000
G1 X80.000 Y120.000 E60.06780 F9000
G1 X80.000 Y80.000 E61.46473 F9000
;LAYER_CHANGE
;Z:2.400
G1 Z2.400 F600
;TYPE:Outer wall
G1 X80.000 Y80.000 F9000
G1 X120.000 Y80.000 E62.86166 F9000
G1 X120.000 Y120.000 E64.25858 F9000
G1 X80.000 Y120.000 E65.65551 F9000
G1 X80.000 Y80.000 E67.05243 F9000
;LAYER_CHANGE
;Z:2.600
G1 Z2.600 F600
;TYPE:Outer wall
G1 X80.000 Y80.000 F9000
G1 X120.000 Y80.000 E68.44936 F9000
G1 X120.000 Y120.000 E69.84628 F9000
G1 X80.000 Y120.000 E71.24321 F9000
G1 X80.000 Y80.000 E72.64013 F9000
;LAYER_CHANGE
;Z:2.800
G1 Z2.800 F600
;TYPE:Outer wall
G1 X80.000 Y80.000 F9000
G1 X120.000 Y80.000 E74.03706 F9000
G1 X120.000 Y120.000 E75.43399 F9000
G1 X80.000 Y120.000 E76.83091 F9000
G1 X80.000 Y80.000 E78.22784 F9000
;LAYER_CHANGE
;Z:3.000
G1 Z3.000 F600
;TYPE:Outer wall
G1 X80.000 Y80.000 F9000
G1 X120.000 Y80.000 E79.62476 F9000
G1 X120.000 Y120.000 E81.02169 F9000
G1 X80.000 Y120.000 E82.41861 F9000
G1 X80.000 Y80.000 E83.81554 F9000
;LAYER_CHANGE
;Z:3.200
G1 Z3.200 F600
;TYPE:Outer wall
G1 X80.000 Y80.000 F9000
G1 X120.000 Y80.000 E85.21247 F9000
G1 X120.000 Y120.000 E86.60939 F9000
G1 X80.000 Y120.000 E88.00632 F9000
G1 X80.000 Y80.000 E89.40324 F9000
;LAYER_CHANGE
;Z:3.400
G1 Z3.400 F600
;TYPE:Outer wall
G1 X80.000 Y80.000 F9000
G1 X120.000 Y80.000 E90.80017 F9000
G1 X120.000 Y120.000 E92.19709 F9000
G1 X80.000 Y120.000 E93.59402 F9000
G1 X80.000 Y80.000 E94.99095 F9000
;LAYER_CHANGE
;Z:3.600
G1 Z3.600 F600
;TYPE:Outer wall
G1 X80.000 Y80.000 F9000
G1 X120.000 Y80.000 E96.38787 F9000
G1 X120.000 Y120.000 E97.78480 F9000
G1 X80.000 Y120.000 E99.18172 F9000
G1 X80.000 Y80.000 E100.57865 F9000
;LAYER_CHANGE
;Z:3.800
G1 Z3.800 F600
;TYPE:Outer wall
G1 X80.000 Y80.000 F9000
G1 X120.000 Y80.000 E101.97557 F9000
G1 X120.000 Y120.000 E103.37250 F9000
G1 X80.000 Y120.000 E104.76943 F9000
G1 X80.000 Y80.000 E106.16635 F9000
;LAYER_CHANGE
;Z:4.000
G1 Z4.000 F600
;TYPE:Outer wall
G1 X80.000 Y80.000 F9000
G1 X120.000 Y80.000 E107.56328 F9000
G1 X120.000 Y120.000 E108.96020 F9000
G1 X80.000 Y120.000 E110.35713 F9000
G1 X80.000 Y80.000 E111.75405 F9000
M107
M104 S0